SWARM B                 
1 39451U 13067A   26179.59033832  .00003378  00000+0  12017-3 0  9991
2 39451  87.7442 338.8515 0002970  80.1504 280.0080 15.28619697684982
SWARM A                 
1 39452U 13067B   26179.63934628  .00009627  00000+0  16421-3 0  9996
2 39452  87.3317  51.9863 0003158  96.8942 263.2678 15.51166631708027
SWARM C                 
1 39453U 13067C   26179.63924358  .00009581  00000+0  16343-3 0  9998
2 39453  87.3316  50.5674 0003159  97.2053 262.9567 15.51165352707987
BRITE-CA1 (TORONTO)     
1 40020U 14033L   26179.58832666  .00000861  00000+0  13693-3 0  9995
2 40020  97.9752 308.3069 0077414 239.8801 119.4718 14.72693885643894
OCO 2                   
1 40059U 14035A   26179.55459800  .00000370  00000+0  92096-4 0  9991
2 40059  98.2019 120.6746 0001501  83.1980 276.9390 14.57119976637700
BRITE-PL2 (HEWELIUSZ)   
1 40119U 14049B   26179.55355389  .00001501  00000+0  14375-3 0  9990
2 40119  97.9109 291.6418 0015269  73.7044 286.5854 14.94634540643147
MMS 1                   
1 40482U 15011A   26179.58334491 -.00000944  00000+0  00000+0 0  9994
2 40482  72.2701 348.6717 8316871 167.5791  21.1948  0.28399061  1380
MMS 2                   
1 40483U 15011B   26179.58334491 -.00000945  00000+0  00000+0 0  9996
2 40483  72.2741 348.6706 8319771 167.5813  21.1845  0.28399539  1386
MMS 3                   
1 40484U 15011C   26179.58334491 -.00000944  00000+0  00000+0 0  9996
2 40484  72.2738 348.6826 8318046 167.5898  21.1591  0.28399119  1385
MMS 4                   
1 40485U 15011D   26179.58334491 -.00000944  00000+0  00000+0 0  9997
2 40485  72.2702 348.6657 8318039 167.5985  21.1515  0.28399672  1388
ASTROSAT                
1 40930U 15052A   26178.31699257  .00001555  00000+0  10752-3 0  9998
2 40930   5.9975  82.4253 0007905 183.2335 176.7742 14.82523206581330
DAMPE                   
1 41173U 15078A   26179.60770635  .00001345  00000+0  47681-4 0  9998
2 41173  97.4555 185.1308 0013286  41.6509 318.5741 15.30814184586298
PISAT                   
1 41784U 16059B   26179.58738004  .00000884  00000+0  15793-3 0  9992
2 41784  97.8180 179.5503 0029356 166.1785 194.0232 14.69002000521414
HXMT (HUIYAN)           
1 42758U 17034A   26179.31645475  .00004205  00000+0  20867-3 0  9997
2 42758  43.0138 121.0657 0032271 217.7560 142.1024 15.18552277499359
FLYING LAPTOP           
1 42831U 17042G   26179.58372714  .00003405  00000+0  26861-3 0  9991
2 42831  97.4730 334.6810 0019970  85.2696 275.0809 15.01217521488160
ZHANGHENG 1-01 (CSES-1) 
1 43194U 18015C   26179.65282938  .00006435  00000+0  29271-3 0  9995
2 43194  97.6872 345.5392 0017481 223.7440 136.2411 15.20956273466381
SALSAT                  
1 46495U 20068K   26179.59166665  .00006710  00000+0  23412-3 0  9991
2 46495  97.8846 183.3517 0007859 259.1040 100.9315 15.29955960317102
IXPE                    
1 49954U 21121A   26179.66670139  .00010599  00000+0  57163-3 0  9999
2 49954   0.2293 230.8181 0007356 250.2089  12.5466 15.10354770  5348
SMILE                   
1 69123U 26109A   26158.38327019 -.00000041  00000+0 -36778-3 0  9994
2 69123  69.9787 209.3069 3310191 288.5544  45.7342  7.54049028  2480
